KUIPER-00089            
1 64834U 25151U   25214.84241082  .00013476  00000+0  39692-3 0  9994
2 64834  51.8784 202.9110 0005549 217.2218 142.8384 15.35334685  2691
KUIPER-00090            
1 64835U 25151V   25214.58453722  .00022922  00000+0  67031-3 0  9996
2 64835  51.8780 204.1799 0005679 222.2206 137.8343 15.35159020  2655
KUIPER-00091            
1 64836U 25151W   25214.51188636  .00021504  00000+0  61616-3 0  9997
2 64836  51.8778 204.4414 0005788 194.6960 165.3858 15.35838016  2645
KUIPER-00092            
1 64837U 25151X   25215.16502216  .00023588  00000+0  67864-3 0  9999
2 64837  51.8775 201.3164 0005422 205.5320 154.5399 15.35655002  3955
KUIPER-00093            
1 64838U 25151Y   25214.84214506  .00014206  00000+0  41678-3 0  9998
2 64838  51.8785 202.9095 0005215 209.7638 150.3052 15.35412619  2690
KUIPER-00094            
1 64839U 25151Z   25214.51372860  .00025464  00000+0  73083-3 0  9994
2 64839  51.8775 204.4525 0005358 201.0202 159.0565 15.35687004  2647
